[{"OBJECT_NAME":"STARLINK-11351 [DTC]","OBJECT_ID":"2024-204N","EPOCH":"2026-03-21T19:40:33.208320","MEAN_MOTION":15.69693082,"ECCENTRICITY":9.909e-5,"INCLINATION":53.1593,"RA_OF_ASC_NODE":296.1809,"ARG_OF_PERICENTER":96.796,"MEAN_ANOMALY":263.317,"EPHEMERIS_TYPE":0,"CLASSIFICATION_TYPE":"U","NORAD_CAT_ID":61886,"ELEMENT_SET_NO":999,"REV_AT_EPOCH":7882,"BSTAR":-1.4620628e-5,"MEAN_MOTION_DOT":-2.358e-5,"MEAN_MOTION_DDOT":0},{"OBJECT_NAME":"STARLINK-32410","OBJECT_ID":"2024-204P","EPOCH":"2026-03-22T06:21:37.602720","MEAN_MOTION":15.30184766,"ECCENTRICITY":0.00014762,"INCLINATION":53.1621,"RA_OF_ASC_NODE":68.6128,"ARG_OF_PERICENTER":96.1529,"MEAN_ANOMALY":263.964,"EPHEMERIS_TYPE":0,"CLASSIFICATION_TYPE":"U","NORAD_CAT_ID":61887,"ELEMENT_SET_NO":999,"REV_AT_EPOCH":7702,"BSTAR":-1.5917286e-5,"MEAN_MOTION_DOT":-8.3e-6,"MEAN_MOTION_DDOT":0},{"OBJECT_NAME":"STARLINK-32377","OBJECT_ID":"2024-204Q","EPOCH":"2026-03-22T06:10:58.863072","MEAN_MOTION":15.30201277,"ECCENTRICITY":0.00012263,"INCLINATION":53.1609,"RA_OF_ASC_NODE":68.568,"ARG_OF_PERICENTER":99.4456,"MEAN_ANOMALY":260.6684,"EPHEMERIS_TYPE":0,"CLASSIFICATION_TYPE":"U","NORAD_CAT_ID":61888,"ELEMENT_SET_NO":999,"REV_AT_EPOCH":7701,"BSTAR":5.0599425e-5,"MEAN_MOTION_DOT":1.14e-5,"MEAN_MOTION_DDOT":0},{"OBJECT_NAME":"STARLINK-32292","OBJECT_ID":"2024-204R","EPOCH":"2026-03-22T06:35:18.661056","MEAN_MOTION":15.3017357,"ECCENTRICITY":0.00012162,"INCLINATION":53.1612,"RA_OF_ASC_NODE":68.672,"ARG_OF_PERICENTER":93.799,"MEAN_ANOMALY":266.3149,"EPHEMERIS_TYPE":0,"CLASSIFICATION_TYPE":"U","NORAD_CAT_ID":61889,"ELEMENT_SET_NO":999,"REV_AT_EPOCH":7702,"BSTAR":-7.1890548e-5,"MEAN_MOTION_DOT":-2.486e-5,"MEAN_MOTION_DDOT":0},{"OBJECT_NAME":"STARLINK-32501","OBJECT_ID":"2024-204S","EPOCH":"2026-03-22T05:24:01.702944","MEAN_MOTION":15.30193403,"ECCENTRICITY":0.0001497,"INCLINATION":53.1612,"RA_OF_ASC_NODE":69.0739,"ARG_OF_PERICENTER":89.3985,"MEAN_ANOMALY":270.7188,"EPHEMERIS_TYPE":0,"CLASSIFICATION_TYPE":"U","NORAD_CAT_ID":61890,"ELEMENT_SET_NO":999,"REV_AT_EPOCH":7701,"BSTAR":1.4117153e-5,"MEAN_MOTION_DOT":5.9e-7,"MEAN_MOTION_DDOT":0},{"OBJECT_NAME":"STARLINK-32383","OBJECT_ID":"2024-204T","EPOCH":"2026-03-22T05:14:55.103712","MEAN_MOTION":15.30196149,"ECCENTRICITY":0.00010365,"INCLINATION":53.1603,"RA_OF_ASC_NODE":69.0333,"ARG_OF_PERICENTER":58.554,"MEAN_ANOMALY":301.5562,"EPHEMERIS_TYPE":0,"CLASSIFICATION_TYPE":"U","NORAD_CAT_ID":61891,"ELEMENT_SET_NO":999,"REV_AT_EPOCH":7701,"BSTAR":1.0998958e-5,"MEAN_MOTION_DOT":-3.3e-7,"MEAN_MOTION_DDOT":0},{"OBJECT_NAME":"STARLINK-32239","OBJECT_ID":"2024-204U","EPOCH":"2026-03-22T05:34:39.859392","MEAN_MOTION":15.30196743,"ECCENTRICITY":0.00013034,"INCLINATION":53.1598,"RA_OF_ASC_NODE":69.12,"ARG_OF_PERICENTER":91.6352,"MEAN_ANOMALY":268.4798,"EPHEMERIS_TYPE":0,"CLASSIFICATION_TYPE":"U","NORAD_CAT_ID":61892,"ELEMENT_SET_NO":999,"REV_AT_EPOCH":7701,"BSTAR":2.3043352e-5,"MEAN_MOTION_DOT":3.23e-6,"MEAN_MOTION_DDOT":0},{"OBJECT_NAME":"STARLINK-32489","OBJECT_ID":"2024-204V","EPOCH":"2026-03-22T05:57:18.875232","MEAN_MOTION":15.30191147,"ECCENTRICITY":0.00012635,"INCLINATION":53.1607,"RA_OF_ASC_NODE":68.5074,"ARG_OF_PERICENTER":71.8808,"MEAN_ANOMALY":288.233,"EPHEMERIS_TYPE":0,"CLASSIFICATION_TYPE":"U","NORAD_CAT_ID":61893,"ELEMENT_SET_NO":999,"REV_AT_EPOCH":7701,"BSTAR":-4.746924e-6,"MEAN_MOTION_DOT":-5.0e-6,"MEAN_MOTION_DDOT":0},{"OBJECT_NAME":"STARLINK-32303","OBJECT_ID":"2024-207A","EPOCH":"2026-03-22T01:18:14.315040","MEAN_MOTION":15.27569865,"ECCENTRICITY":0.00012132,"INCLINATION":42.9962,"RA_OF_ASC_NODE":211.8602,"ARG_OF_PERICENTER":36.9342,"MEAN_ANOMALY":323.1592,"EPHEMERIS_TYPE":0,"CLASSIFICATION_TYPE":"U","NORAD_CAT_ID":61912,"ELEMENT_SET_NO":999,"REV_AT_EPOCH":7720,"BSTAR":0.00076182112,"MEAN_MOTION_DOT":0.00020754,"MEAN_MOTION_DDOT":0},{"OBJECT_NAME":"STARLINK-32434","OBJECT_ID":"2024-207B","EPOCH":"2026-03-22T01:57:05.850144","MEAN_MOTION":15.27588983,"ECCENTRICITY":8.095e-5,"INCLINATION":42.9999,"RA_OF_ASC_NODE":212.0714,"ARG_OF_PERICENTER":95.0716,"MEAN_ANOMALY":265.0228,"EPHEMERIS_TYPE":0,"CLASSIFICATION_TYPE":"U","NORAD_CAT_ID":61913,"ELEMENT_SET_NO":999,"REV_AT_EPOCH":7661,"BSTAR":0.0004261783,"MEAN_MOTION_DOT":0.00011487,"MEAN_MOTION_DDOT":0},{"OBJECT_NAME":"STARLINK-32460","OBJECT_ID":"2024-207C","EPOCH":"2026-03-21T18:20:53.120544","MEAN_MOTION":15.27639791,"ECCENTRICITY":0.00013478,"INCLINATION":43.0021,"RA_OF_ASC_NODE":213.128,"ARG_OF_PERICENTER":273.4223,"MEAN_ANOMALY":86.6474,"EPHEMERIS_TYPE":0,"CLASSIFICATION_TYPE":"U","NORAD_CAT_ID":61914,"ELEMENT_SET_NO":999,"REV_AT_EPOCH":7657,"BSTAR":0.001014727,"MEAN_MOTION_DOT":0.00027817,"MEAN_MOTION_DDOT":0},{"OBJECT_NAME":"STARLINK-32559","OBJECT_ID":"2024-207D","EPOCH":"2026-03-21T10:50:28.180320","MEAN_MOTION":15.27619521,"ECCENTRICITY":0.00015529,"INCLINATION":42.9991,"RA_OF_ASC_NODE":215.0808,"ARG_OF_PERICENTER":273.2218,"MEAN_ANOMALY":86.8456,"EPHEMERIS_TYPE":0,"CLASSIFICATION_TYPE":"U","NORAD_CAT_ID":61915,"ELEMENT_SET_NO":999,"REV_AT_EPOCH":7652,"BSTAR":0.0011175021,"MEAN_MOTION_DOT":0.00030654,"MEAN_MOTION_DDOT":0},{"OBJECT_NAME":"STARLINK-32541","OBJECT_ID":"2024-207E","EPOCH":"2026-03-21T18:01:53.894208","MEAN_MOTION":15.27624224,"ECCENTRICITY":0.00014379,"INCLINATION":43.0028,"RA_OF_ASC_NODE":217.353,"ARG_OF_PERICENTER":272.6312,"MEAN_ANOMALY":87.4376,"EPHEMERIS_TYPE":0,"CLASSIFICATION_TYPE":"U","NORAD_CAT_ID":61916,"ELEMENT_SET_NO":999,"REV_AT_EPOCH":7652,"BSTAR":0.0013078421,"MEAN_MOTION_DOT":0.00035951,"MEAN_MOTION_DDOT":0},{"OBJECT_NAME":"STARLINK-32544","OBJECT_ID":"2024-207F","EPOCH":"2026-03-22T01:09:00.517824","MEAN_MOTION":15.27589192,"ECCENTRICITY":5.122e-5,"INCLINATION":42.9982,"RA_OF_ASC_NODE":211.8138,"ARG_OF_PERICENTER":295.1736,"MEAN_ANOMALY":64.9063,"EPHEMERIS_TYPE":0,"CLASSIFICATION_TYPE":"U","NORAD_CAT_ID":61917,"ELEMENT_SET_NO":999,"REV_AT_EPOCH":7661,"BSTAR":0.001189836,"MEAN_MOTION_DOT":0.00032634,"MEAN_MOTION_DDOT":0},{"OBJECT_NAME":"STARLINK-32555","OBJECT_ID":"2024-207G","EPOCH":"2026-03-22T02:09:19.901952","MEAN_MOTION":15.27596411,"ECCENTRICITY":0.00019171,"INCLINATION":43.0049,"RA_OF_ASC_NODE":215.5927,"ARG_OF_PERICENTER":257.3357,"MEAN_ANOMALY":102.7281,"EPHEMERIS_TYPE":0,"CLASSIFICATION_TYPE":"U","NORAD_CAT_ID":61918,"ELEMENT_SET_NO":999,"REV_AT_EPOCH":7657,"BSTAR":0.00040169255,"MEAN_MOTION_DOT":0.00010813,"MEAN_MOTION_DDOT":0},{"OBJECT_NAME":"STARLINK-32547","OBJECT_ID":"2024-207H","EPOCH":"2026-03-21T18:22:43.808448","MEAN_MOTION":15.27634158,"ECCENTRICITY":0.00020527,"INCLINATION":43.0024,"RA_OF_ASC_NODE":213.1399,"ARG_OF_PERICENTER":276.789,"MEAN_ANOMALY":83.2728,"EPHEMERIS_TYPE":0,"CLASSIFICATION_TYPE":"U","NORAD_CAT_ID":61919,"ELEMENT_SET_NO":999,"REV_AT_EPOCH":7656,"BSTAR":0.0011813032,"MEAN_MOTION_DOT":0.00032442,"MEAN_MOTION_DDOT":0}]
