STARLINK-11351 [DTC]    
1 61886U 24204N   26080.81982880 -.00002358  00000+0 -14621-4 0  9998
2 61886  53.1593 296.1809 0000990  96.7960 263.3170 15.69693082 78823
STARLINK-32410          
1 61887U 24204P   26081.26501855 -.00000830  00000+0 -15917-4 0  9990
2 61887  53.1621  68.6128 0001476  96.1529 263.9640 15.30184766 77028
STARLINK-32377          
1 61888U 24204Q   26081.25762573  .00001140  00000+0  50599-4 0  9994
2 61888  53.1609  68.5680 0001226  99.4456 260.6684 15.30201277 77013
STARLINK-32292          
1 61889U 24204R   26081.27452154 -.00002486  00000+0 -71891-4 0  9992
2 61889  53.1612  68.6720 0001216  93.7990 266.3149 15.30173570 77027
STARLINK-32501          
1 61890U 24204S   26081.22501971  .00000059  00000+0  14117-4 0  9991
2 61890  53.1612  69.0739 0001497  89.3985 270.7188 15.30193403 77018
STARLINK-32383          
1 61891U 24204T   26081.21869333 -.00000033  00000+0  10999-4 0  9997
2 61891  53.1603  69.0333 0001036  58.5540 301.5562 15.30196149 77012
STARLINK-32239          
1 61892U 24204U   26081.23240578  .00000323  00000+0  23043-4 0  9999
2 61892  53.1598  69.1200 0001303  91.6352 268.4798 15.30196743 77018
STARLINK-32489          
1 61893U 24204V   26081.24813513 -.00000500  00000+0 -47469-5 0  9994
2 61893  53.1607  68.5074 0001263  71.8808 288.2330 15.30191147 77018
STARLINK-32303          
1 61912U 24207A   26081.05433235  .00020754  00000+0  76182-3 0  9990
2 61912  42.9962 211.8602 0001213  36.9342 323.1592 15.27569865 77202
STARLINK-32434          
1 61913U 24207B   26081.08131771  .00011487  00000+0  42618-3 0  9994
2 61913  42.9999 212.0714 0000809  95.0716 265.0228 15.27588983 76617
STARLINK-32460          
1 61914U 24207C   26080.76450371  .00027817  00000+0  10147-2 0  9994
2 61914  43.0021 213.1280 0001347 273.4223  86.6474 15.27639791 76578
STARLINK-32559          
1 61915U 24207D   26080.45171505  .00030654  00000+0  11175-2 0  9995
2 61915  42.9991 215.0808 0001552 273.2218  86.8456 15.27619521 76526
STARLINK-32541          
1 61916U 24207E   26080.75131822  .00035951  00000+0  13078-2 0  9996
2 61916  43.0028 217.3530 0001437 272.6312  87.4376 15.27624224 76521
STARLINK-32544          
1 61917U 24207F   26081.04792266  .00032634  00000+0  11898-2 0  9998
2 61917  42.9982 211.8138 0000512 295.1736  64.9063 15.27589192 76612
STARLINK-32555          
1 61918U 24207G   26081.08981368  .00010813  00000+0  40169-3 0  9995
2 61918  43.0049 215.5927 0001917 257.3357 102.7281 15.27596411 76575
STARLINK-32547          
1 61919U 24207H   26080.76578482  .00032442  00000+0  11813-2 0  9994
2 61919  43.0024 213.1399 0002052 276.7890  83.2728 15.27634158 76563
